#dP2021 10  2  0  0  0.00000000      96 __u+U ITR00 FIT  IAC
## 2177 518400.00000000   900.00000000 59489 0.0000000000000
+  127   C01C02C03C04C05C06C07C08C09C10C11C12C13C14C16C19C20
+        C21C22C23C24C25C26C27C28C29C30C32C33C34C35C36C37C38
+        C39C40C41C42C43C44C45C46C59C60E01E02E03E04E05E07E08
+        E09E11E12E13E14E15E18E19E21E24E25E26E27E30E31E33E36
+        G01G02G03G04G05G06G07G08G09G10G12G13G14G15G16G17G18
+        G19G20G21G22G23G24G25G26G27G28G29G30G31G32J01J02J03
+        J07R01R02R03R04R05R06R07R08R09R10R11R12R13R14R15R16
+        R17R18R19R20R21R22R23R24  0  0  0  0  0  0  0  0  0
++         0  0  0  0  0  0  0  0  0  0  0  0  0  0  0  0  0
++         0  0  0  0  0  0  0  0  0  0  0  0  0  0  0  0  0
++         0  0  0  0  0  0  0  0  0  0  0  0  0  0  0  0  0
++         0  0  0  0  0  0  0  0  0  0  0  0  0  0  0  0  0
++         0  0  0  0  0  0  0  0  0  0  0  0  0  0  0  0  0
++         0  0  0  0  0  0  0  0  0  0  0  0  0  0  0  0  0
++         0  0  0  0  0  0  0  0  0  0  0  0  0  0  0  0  0
++         0  0  0  0  0  0  0  0  0  0  0  0  0  0  0  0  0
%c M  cc GPS ccc cccc cccc cccc cccc ccccc ccccc ccccc ccccc
%c cc cc ccc ccc cccc cccc cccc cccc ccccc ccccc ccccc ccccc
%f  0.0000000  0.000000000  0.00000000000  0.000000000000000
%f  0.0000000  0.000000000  0.00000000000  0.000000000000000
%i    0    0    0    0      0      0      0      0         0
%i    0    0    0    0      0      0      0      0         0
/* INFORMATION & ANALYSIS CENTER (IAC)            RAPID DATA
/* S/V CLOCKS ARE ALIGNED TO GNSS TIME                      
/* G:C1WC2W R:C1PC2P E:C1XC5X C:C2IC6I J:C1CC2S             
/* PCV:IGS14_2163 OL/AL:FES2004  NONE     YN ORB:CoN CLK:CoN
*  2021 10 02 21  0  0.00000000
PC01 -34305.240579  24520.239152    200.494739   -583.660275
PC02   4284.914885  41914.418578   -557.306611    283.999410
PC03 -14763.909745  39463.976731    184.495122    -81.919366
PC04 -39572.164407  14515.799160    523.781052    130.561223
PC05  21898.815157  36005.428766   -929.899760    254.253229
PC06  -3712.325160  25792.202546 -33129.737916    277.454527
PC07 -18785.647628  32134.162619  19686.622389   -169.751635
PC08  -5950.344958  40558.632356  10187.652365   -902.602792
PC09   5520.864930  29178.574895 -29436.907717   -153.041588
PC10 -10537.404294  32120.718247  25174.878440      4.104253
PC11  22444.118251   2814.087472 -16312.010947    608.755768
PC12  22981.268561  15860.539106    -58.153468    746.413088
PC13  -1130.077162  42185.277553   3230.897336    429.084645
PC14  26003.237752  -7731.610595  -6650.078096    609.141565
PC16  -6837.856820  23641.312605 -34074.578973   -781.597491
PC19 -23945.832769  14034.932703  -2798.642698    954.060541
PC20 -24307.279457   1570.700409  13598.349161   -796.362367
PC21  10121.044068  12551.377670 -22771.119220   -931.695180
PC22  -9672.100647  18801.493504 -18208.021359   -955.050522
PC23   4606.889058 -27281.228309   3636.235996   -966.206795
PC24  15561.897770   6329.311137  22285.850127   -969.333523
PC25  13760.594608 -16108.643922  18150.747223   -845.938995
PC26   8759.634630  22657.498788  13762.366540    841.696073
PC27 -17795.053205 -19664.009488  -8717.164490    606.878717
PC28   -452.527137 -18126.841012 -21205.385462    -19.487307
PC29 -16892.528458   6623.760338  21194.394411    455.186773
PC30 -25024.946868  -9173.994415   8287.641874    482.358836
PC32 -10133.363089 -12544.670224  22779.771322   -956.956612
PC33  23915.133707 -14137.458702   2718.646604   -967.822859
PC34  24963.694972   8548.775552  -9066.639378   -568.686387
PC35    593.618115  17985.013552  21316.926433    -64.585596
PC36 -14247.314678  15416.267625 -18358.251101   -770.497642
PC37  -7650.288548 -23462.560177 -12983.546653   -870.196147
PC38 -10796.076829  37102.997597  17073.826040    179.545841
PC39 -12565.559400  20610.508089 -34581.744147     33.469505
PC40 -25638.522703  27231.523063  19306.155648    204.889366
PC41   9962.109110 -18899.919116  17990.686138   -928.259774
PC42  23992.695446   -935.966551 -14198.449225   -969.163093
PC43  17420.533374  -6179.813424 -20908.063358   -941.644950
PC44  18283.945647  19115.290506   8843.090090    416.394272
PC45  -4407.501004  27351.880226  -3438.763693    563.448691
PC46 -15679.347575  -4860.193143 -22551.483122     57.870599
PC59      0.000000      0.000000      0.000000 999999.999999
PC60   7323.814035  41499.935947   1539.021252     -0.689207
PE01  -6474.710331 -18178.684387 -22433.602232   -487.191212
PE02   6592.515740  18079.463566  22502.507389    250.829727
PE03  17703.645255  14115.909305 -19080.678313   -480.941104
PE04 -29230.635111  -3333.874753   3254.103005   -869.388024
PE05  -4439.810514  16793.011989 -23971.737726   -244.782446
PE07  23729.960509  -9653.043497  14837.840561   -591.856871
PE08  29317.912856   2939.226834  -2908.821259   5928.033315
PE09 -23522.882893   9784.001818 -15061.360169   5511.567261
PE11 -12337.668786  10890.649219  24593.808706   5331.970289
PE12 -19913.491773 -10493.622698  19222.858210   4980.215672
PE13  12564.388133 -10374.648328 -24709.035602    422.162366
PE14  20445.854461  14218.406677  10281.026816  -1591.319315
PE15  19896.118644  10488.267997 -19243.013506    788.991041
PE18 -10033.078496 -20020.512416 -19997.698030  -1747.297841
PE19 -15341.255401 -14867.879680  20487.874598    392.411815
PE21   8857.944498 -26514.361733  -9721.319095   -691.359796
PE24 -20238.484530  19114.393358 -10094.342698  -1149.882126
PE25  -9012.730428  26536.951240   9545.298803   -548.688754
PE26  -2717.814298 -25499.686097 -14769.617465   1275.214435
PE27  19856.245446 -19930.346203   9202.662990   -133.561726
PE30  18688.207771   -327.774470  22949.975675   2572.001884
PE31 -19089.526766   1706.077693 -22541.896028   -486.302383
PE33 -15486.891907 -25102.085426   2467.975276   -464.223883
PE36   2131.215744  25057.755690  15617.345176   -270.590654
PG01 -15188.601523   -552.369596  21550.948624    550.531242
PG02  14253.866384  20957.550141  -7145.888471   -635.473294
PG03 -20568.501826   8528.976687  14297.161298   -310.564597
PG04 -25056.581098    444.531769  -8900.671254   -204.034223
PG05  15532.856012   4606.599941 -21237.628008    -56.367454
PG06   5454.243580  25594.268277   4420.587661     86.333464
PG07  -8971.422456  15757.030464 -18866.839131    255.805619
PG08 -25851.354284  -6384.231740  -2380.352729    -38.667629
PG09 -17645.650589   9424.702117 -17555.224150   -361.583372
PG10   9030.684590 -22131.297079  11386.300976   -215.632766
PG12  20871.472107  -6326.623728  14815.625750   -105.897518
PG13  21557.905530  13402.254297  -8221.956905    193.938485
PG14  -9906.566598  21867.409713  11302.500212    -10.998281
PG15  26387.320331   3875.715612  -2397.512932   -116.817113
PG16 -11875.609623  -9491.478376 -22050.336325   -400.539329
PG17  -4275.324563  14347.310390  22375.126446    513.444034
PG18   7753.759912 -17471.639303 -18410.322911    315.277418
PG19   5926.231772  16015.291019  20119.753708     60.721631
PG20   7762.553864  15368.063993 -20312.193660    518.835912
PG21 -17858.257762  -8629.728488  18610.090281    145.708617
PG22 -18373.571275   1401.739273  19230.672949   -498.792564
PG23  16864.655501 -20463.868388    241.236442     49.997667
PG24  17464.655617   4808.216772  19285.318211    246.682899
PG25  20072.243855 -15639.564272   6847.508025    218.040722
PG26  -1783.739855 -19137.555654 -18269.194137    140.684007
PG27 -20665.820157 -12334.692870 -11820.096323   -201.012554
PG28  -4410.191221  20302.955106  17207.838729    489.957998
PG29  20546.867885  -5344.359010 -16042.700681   -420.513754
PG30  -1195.103233  23882.270115 -11234.126674   -478.671300
PG31  -6438.749158 -25419.829604   1941.147156   -142.900275
PG32   -520.828412 -15593.094064  21625.391471     -6.144315
PJ01 -35133.638101  17790.289669 -10478.385025    184.549183
PJ02 -25609.093308  32180.949658  -4825.735216     -3.047748
PJ03 -26871.871717  21752.982912  29191.831353     -3.037714
PJ07 -25390.978187  33667.377082    -54.936400     -0.042279
PR01 -23802.904696   8673.623938  -2937.767109     86.141086
PR02 -10075.627738  12437.492316 -19848.690908    495.318261
PR03   8770.159945   8569.499636 -22323.056337     44.003240
PR04  22342.931476   -184.493538 -12274.953553    107.551171
PR05  23535.585135  -8651.585352   4609.087261     79.999730
PR06   8559.964706 -12829.474652  20292.554494     -7.323367
PR07  -9547.480063  -8291.882248  22191.303632    -40.871524
PR08 -22396.811824    158.163672  12280.155674    -61.281602
PR09   6229.803935 -24770.208890    580.420011     16.252781
PR10  -2384.562464 -20528.127660 -14904.539550    -75.567169
PR11 -10227.349427  -3994.275521 -23010.778103 999999.999999
PR12 -12014.347123  15007.240711 -16743.575285    266.850142
PR13  -6630.605289  24587.150568  -1474.145878    -61.548217
PR14   2960.922257  19783.202145  15835.889386     69.466575
PR15  10459.314952   3595.831510  23011.517459    101.098062
PR16  11575.965051 -16176.783338  15872.714189    -22.482063
PR17  15009.678006  19390.092369   7129.203703    463.362432
PR18  19439.158948  13272.318775  -9765.587773     92.442058
PR19  14205.047756   1347.314784 -21148.172889   -161.622600
PR20   -994.673712 -14546.441692 -20931.790677    -56.874984
PR21 -15617.287451 -19280.251083  -5837.363149   -243.777157
PR22 -19342.582710 -12831.276062  10660.748988   -136.612004
PR23  -9967.040580   4525.258050  23031.077311    -15.223452
PR24   1556.880498  15220.333919  20434.444795     61.077854
EOF
